{
"type": "FeatureCollection",
"generator": "overpass-ide",
"copyright": "The data included in this document is from www.openstreetmap.org. The data is made available under ODbL.",
"timestamp": "2018-01-14T16:09:02Z",
"name": "metro_station",
"features": [
{ "type": "Feature", "id": "way\/75734497", "properties": { "@id": "way\/75734497", "building": "train_station", "freight": "yes", "name": "Волковская", "railway": "station" }, "geometry": { "type": "Polygon", "coordinates": [ [ [ 30.3609531, 59.8957691 ], [ 30.3609663, 59.8956552 ], [ 30.3614432, 59.8956691 ], [ 30.3614301, 59.895783 ], [ 30.3609531, 59.8957691 ] ] ] } },
{ "type": "Feature", "id": "way\/104670338", "properties": { "@id": "way\/104670338", "building": "train_station", "freight": "yes", "name": "Цветочная", "railway": "station" }, "geometry": { "type": "Polygon", "coordinates": [ [ [ 30.3343131, 59.8869933 ], [ 30.3344719, 59.8872465 ], [ 30.3342234, 59.8872857 ], [ 30.3340646, 59.8870326 ], [ 30.3343131, 59.8869933 ] ] ] } },
{ "type": "Feature", "id": "way\/107097727", "properties": { "@id": "way\/107097727", "building": "yes", "name": "Шоссейная", "railway": "station", "wikidata": "Q4526244", "wikipedia": "ru:Шоссейная (станция)" }, "geometry": { "type": "Polygon", "coordinates": [ [ [ 30.3333702, 59.8080762 ], [ 30.3335809, 59.8081292 ], [ 30.3334018, 59.8083094 ], [ 30.333191, 59.8082564 ], [ 30.3333702, 59.8080762 ] ] ] } },
{ "type": "Feature", "id": "way\/190168057", "properties": { "@id": "way\/190168057", "building": "train_station", "name": "Броневая", "railway": "station", "wikidata": "Q4096921", "wikipedia": "ru:Броневая (станция)" }, "geometry": { "type": "Polygon", "coordinates": [ [ [ 30.2918682, 59.8751248 ], [ 30.2921112, 59.875117 ], [ 30.2921316, 59.8752783 ], [ 30.2918886, 59.875286 ], [ 30.2918682, 59.8751248 ] ] ] } },
{ "type": "Feature", "id": "way\/337186687", "properties": { "@id": "way\/337186687", "building": "yes", "freight": "yes", "name": "Полюстрово", "railway": "station" }, "geometry": { "type": "Polygon", "coordinates": [ [ [ 30.4449092, 59.9672705 ], [ 30.4449191, 59.9671275 ], [ 30.4451845, 59.9671321 ], [ 30.4451745, 59.9672751 ], [ 30.4449092, 59.9672705 ] ] ] } },
{ "type": "Feature", "id": "node\/308112", "properties": { "@id": "node\/308112", "name": "Кушелевка", "railway": "station", "wikidata": "Q4250172", "wikipedia": "ru:Кушелевка (станция)", "name:fi": "Kušelevka pysäkki" }, "geometry": { "type": "Point", "coordinates": [ 30.3529621, 59.9904099 ] } },
{ "type": "Feature", "id": "node\/308149", "properties": { "@id": "node\/308149", "name": "Пискарёвка", "railway": "station", "wikidata": "Q4363630", "wikipedia": "ru:Пискарёвка (станция)" }, "geometry": { "type": "Point", "coordinates": [ 30.4248493, 59.9881697 ] } },
{ "type": "Feature", "id": "node\/7535181", "properties": { "@id": "node\/7535181", "name": "Санкт-Петербург - Финляндский", "railway": "station", "wikidata": "Q548259", "wikipedia": "ru:Финляндский вокзал", "name:fi": "Suomen asema", "addr:city": "Санкт-Петербург", "addr:housenumber": "6", "addr:postcode": "195009", "addr:street": "площадь Ленина", "alt_name": "Финляндский вокзал", "esr:user": "038205", "loc_name": "Финбан", "name:en": "St Petersburg–Finlyandsky", "name:ru": "Санкт-Петербург - Финляндский", "operator": "РЖД", "start_date": "1870", "uic_name": "St Petersburg Finlyandskii", "uic_ref": "2000007", "website": "http:\/\/finlyandsky.dzvr.ru\/" }, "geometry": { "type": "Point", "coordinates": [ 30.3581566, 59.9581823 ] } },
{ "type": "Feature", "id": "node\/21596808", "properties": { "@id": "node\/21596808", "name": "Санкт-Петербург-Главный", "railway": "station", "esr:user": "031812", "operator": "Октябрьская железная дорога", "uic_name": "St Petersburg P Mosk", "uic_ref": "2000054", "note": "в билетах на поезда указывается станция отправления\/прибытия - Санкт-Петербург - Главный; Московский вокзал - название вокзала, а не станции", "official_name": "Санкт-Петербург-Главный" }, "geometry": { "type": "Point", "coordinates": [ 30.363089, 59.9269266 ] } },
{ "type": "Feature", "id": "node\/21683296", "properties": { "@id": "node\/21683296", "name": "Санкт-Петербург - Витебский", "railway": "station", "wikidata": "Q1238406", "wikipedia": "ru:Витебский вокзал", "esr:user": "033061", "name:ru": "Санкт-Петербург - Витебский", "uic_name": "St Petersburg Vitebskii", "uic_ref": "2000016" }, "geometry": { "type": "Point", "coordinates": [ 30.3307149, 59.9188141 ] } },
{ "type": "Feature", "id": "node\/21751966", "properties": { "@id": "node\/21751966", "name": "Озёрная", "railway": "station", "esr:user": "0", "operator": "Малая Октябрьская железная дорога", "platforms": "2" }, "geometry": { "type": "Point", "coordinates": [ 30.2966514, 60.0391686 ] } },
{ "type": "Feature", "id": "node\/22325156", "properties": { "@id": "node\/22325156", "freight": "yes", "name": "Глухоозёрская", "railway": "station" }, "geometry": { "type": "Point", "coordinates": [ 30.3874886, 59.9090382 ] } },
{ "type": "Feature", "id": "node\/88802787", "properties": { "@id": "node\/88802787", "name": "Петроградская", "railway": "station", "wikidata": "Q1900080", "wikipedia": "ru:Петроградская (станция метро)", "name:fi": "Petrogradskaja", "name:en": "Petrogradskaya", "name:ru": "Петроградская", "operator": "Петербургский метрополитен", "colour": "blue", "name:de": "Petrogradskaja", "network": "Петербургский метрополитен", "station": "subway", "transport": "subway" }, "geometry": { "type": "Point", "coordinates": [ 30.3123488, 59.9656354 ] } },
{ "type": "Feature", "id": "node\/88803981", "properties": { "@id": "node\/88803981", "name": "Горьковская", "railway": "station", "wikidata": "Q970832", "wikipedia": "ru:Горьковская (станция метро, Санкт-Петербург)", "name:fi": "Gorkovskaja", "name:en": "Gor'kovskaya", "name:ru": "Горьковская", "operator": "Петербургский метрополитен", "colour": "blue", "name:de": "Gorkowskaja", "network": "Петербургский метрополитен", "station": "subway", "transport": "subway" }, "geometry": { "type": "Point", "coordinates": [ 30.3190487, 59.955668 ] } },
{ "type": "Feature", "id": "node\/88833360", "properties": { "@id": "node\/88833360", "name": "Спортивная", "railway": "station", "name:fi": "Sportivnaja", "name:en": "Sportivnaya", "name:ru": "Спортивная", "operator": "Петербургский метрополитен", "colour": "purple", "name:de": "Sportiwnaja", "network": "Петербургский метрополитен", "station": "subway", "transport": "subway" }, "geometry": { "type": "Point", "coordinates": [ 30.2906729, 59.9513191 ] } },
{ "type": "Feature", "id": "node\/88833366", "properties": { "@id": "node\/88833366", "name": "Чкаловская", "railway": "station", "name:fi": "Tškalovskaja", "name:en": "Chkalovskaya", "name:ru": "Чкаловская", "operator": "Петербургский метрополитен", "colour": "purple", "name:de": "Tschkalowskaja", "network": "Петербургский метрополитен", "station": "subway", "transport": "subway" }, "geometry": { "type": "Point", "coordinates": [ 30.2921907, 59.9605901 ] } },
{ "type": "Feature", "id": "node\/90551453", "properties": { "@id": "node\/90551453", "name": "Удельная", "railway": "station", "wikidata": "Q2734724", "wikipedia": "ru:Удельная (станция метро)", "name:fi": "Udelnaja", "addr:housenumber": "15А", "addr:street": "Елецкая улица", "name:en": "Udel'naya", "name:ru": "Удельная", "operator": "Петербургский метрополитен", "website": "http:\/\/www.metro.spb.ru\/", "colour": "blue", "name:de": "Udelnaja", "network": "Петербургский метрополитен", "station": "subway", "transport": "subway" }, "geometry": { "type": "Point", "coordinates": [ 30.3165786, 60.0170946 ] } },
{ "type": "Feature", "id": "node\/91264384", "properties": { "@id": "node\/91264384", "name": "Старая Деревня", "railway": "station", "name:fi": "Staraja Derevnja", "name:en": "Staraya Derevnya", "name:ru": "Старая Деревня", "operator": "Петербургский метрополитен", "colour": "purple", "name:de": "Staraja Derewnaja", "network": "Петербургский метрополитен", "station": "subway", "transport": "subway" }, "geometry": { "type": "Point", "coordinates": [ 30.255401, 59.9886839 ] } },
{ "type": "Feature", "id": "node\/92580819", "properties": { "@id": "node\/92580819", "name": "Садовая", "railway": "station", "wikidata": "Q2315663", "name:fi": "Sadovaja", "name:en": "Sadovaya", "name:ru": "Садовая", "operator": "Петербургский метрополитен", "colour": "purple", "name:de": "Sadowaja", "network": "Петербургский метрополитен", "station": "subway", "transport": "subway" }, "geometry": { "type": "Point", "coordinates": [ 30.3193825, 59.9276034 ] } },
{ "type": "Feature", "id": "node\/94516905", "properties": { "@id": "node\/94516905", "name": "Комендантский проспект", "railway": "station", "name:fi": "Komendantski Prospekt", "name:en": "Komendantskiy Prospekt", "name:ru": "Комендантский проспект", "operator": "Петербургский метрополитен", "colour": "purple", "name:de": "Komendantski Prospekt", "network": "Петербургский метрополитен", "station": "subway", "transport": "subway", "wheelchair": "limited" }, "geometry": { "type": "Point", "coordinates": [ 30.2575166, 60.0094283 ] } },
{ "type": "Feature", "id": "node\/94857612", "properties": { "@id": "node\/94857612", "name": "Сенная площадь", "railway": "station", "name:fi": "Sennaja Ploštšad", "name:en": "Sennaya Ploshchad", "name:ru": "Сенная площадь", "operator": "Петербургский метрополитен", "colour": "blue", "name:de": "Sennaja Ploschtschad", "network": "Петербургский метрополитен", "station": "subway", "transport": "subway" }, "geometry": { "type": "Point", "coordinates": [ 30.3199935, 59.925811 ] } },
{ "type": "Feature", "id": "node\/94858991", "properties": { "@id": "node\/94858991", "name": "Достоевская", "railway": "station", "name:fi": "Dostojevskaja", "name:en": "Dostoyevskaya", "name:ru": "Достоевская", "operator": "Петербургский метрополитен", "colour": "orange", "name:de": "Dostojewskaja", "network": "Петербургский метрополитен", "station": "subway", "transport": "subway" }, "geometry": { "type": "Point", "coordinates": [ 30.3458352, 59.9277613 ] } },
{ "type": "Feature", "id": "node\/94877075", "properties": { "@id": "node\/94877075", "name": "Лиговский проспект", "railway": "station", "name:fi": "Ligovski Prospekt", "name:en": "Ligovskiy Prospekt", "name:ru": "Лиговский проспект", "operator": "Петербургский метрополитен", "colour": "orange", "name:de": "Ligowski-Prospekt", "network": "Петербургский метрополитен", "station": "subway", "transport": "subway" }, "geometry": { "type": "Point", "coordinates": [ 30.3556508, 59.920732 ] } },
{ "type": "Feature", "id": "node\/94890886", "properties": { "@id": "node\/94890886", "name": "Площадь Александра Невского 1", "railway": "station", "name:fi": "Ploštšad Aleksandra Nevskogo 1", "name:en": "Ploschad' Alexandra Nevskogo-1", "name:ru": "Площадь Александра Невского 1", "operator": "Петербургский метрополитен", "colour": "green", "name:de": "Ploschtschad Alexandra Newskogo-1", "network": "Петербургский метрополитен", "station": "subway", "transport": "subway", "name:es": "Ploshchad' Aleksanra Nevskogo 1" }, "geometry": { "type": "Point", "coordinates": [ 30.3859972, 59.9232675 ] } },
{ "type": "Feature", "id": "node\/94891390", "properties": { "@id": "node\/94891390", "name": "Новочеркасская", "railway": "station", "name:fi": "Novotšerkasskaja", "name:en": "Novocherkasskaya", "name:ru": "Новочеркасская", "operator": "Петербургский метрополитен", "colour": "orange", "name:de": "Nowotscherkasskaja", "network": "Петербургский метрополитен", "station": "subway", "transport": "subway" }, "geometry": { "type": "Point", "coordinates": [ 30.4151991, 59.929598 ] } },
{ "type": "Feature", "id": "node\/94896142", "properties": { "@id": "node\/94896142", "name": "Ладожская", "railway": "station", "name:fi": "Ladožskaja", "name:en": "Ladozhskaya", "name:ru": "Ладожская", "operator": "Петербургский метрополитен", "colour": "orange", "name:de": "Ladoschskaja", "network": "Петербургский метрополитен", "station": "subway", "transport": "subway" }, "geometry": { "type": "Point", "coordinates": [ 30.4424016, 59.9315338 ] } },
{ "type": "Feature", "id": "node\/96449579", "properties": { "@id": "node\/96449579", "name": "Чёрная речка", "railway": "station", "name:fi": "Tšornaja Retška", "name:en": "Chyornaya Reckka", "name:ru": "Чёрная речка", "operator": "Петербургский метрополитен", "colour": "blue", "name:de": "Tschornaja Retschka", "network": "Петербургский метрополитен", "station": "subway", "transport": "subway" }, "geometry": { "type": "Point", "coordinates": [ 30.3013574, 59.9857825 ] } },
{ "type": "Feature", "id": "node\/96453108", "properties": { "@id": "node\/96453108", "name": "Пионерская", "railway": "station", "name:fi": "Pionerskaja", "name:en": "Pionerskaya", "name:ru": "Пионерская", "operator": "Петербургский метрополитен", "colour": "blue", "name:de": "Pionerskaja", "network": "Петербургский метрополитен", "station": "subway", "transport": "subway" }, "geometry": { "type": "Point", "coordinates": [ 30.2966163, 60.0030921 ] } },
{ "type": "Feature", "id": "node\/96459081", "properties": { "@id": "node\/96459081", "name": "Озерки", "railway": "station", "wikidata": "Q2241386", "wikipedia": "ru:Озерки (станция метро)", "name:fi": "Ozerki", "name:en": "Ozerki", "name:ru": "Озерки", "operator": "Петербургский метрополитен", "colour": "blue", "name:de": "Oserki", "network": "Петербургский метрополитен", "station": "subway", "transport": "subway" }, "geometry": { "type": "Point", "coordinates": [ 30.321324, 60.0363355 ] } },
{ "type": "Feature", "id": "node\/97036546", "properties": { "@id": "node\/97036546", "name": "Площадь Восстания", "railway": "station", "name:fi": "Ploštšad Vosstanija", "name:en": "vosstaniya square", "name:ru": "Площадь Восстания", "operator": "Петербургский метрополитен", "colour": "red", "name:de": "Ploschtschad Wosstanija", "network": "Петербургский метрополитен", "station": "subway", "transport": "subway", "name:zh": "该地区的叛乱" }, "geometry": { "type": "Point", "coordinates": [ 30.3599481, 59.930516 ] } },
{ "type": "Feature", "id": "node\/97049932", "properties": { "@id": "node\/97049932", "name": "Маяковская", "railway": "station", "name:fi": "Majakovskaja", "name:en": "Mayakovskaya", "name:ru": "Маяковская", "operator": "Петербургский метрополитен", "colour": "green", "name:de": "Majakowskaja", "network": "Петербургский метрополитен", "station": "subway", "transport": "subway", "name:zh": "玛雅科夫斯卡娅" }, "geometry": { "type": "Point", "coordinates": [ 30.3577323, 59.9308412 ] } },
{ "type": "Feature", "id": "node\/108028429", "properties": { "@id": "node\/108028429", "name": "Владимирская", "railway": "station", "name:fi": "Vladimirskaja", "name:en": "Vladimirskaya", "name:ru": "Владимирская", "operator": "Петербургский метрополитен", "colour": "red", "name:de": "Wladimirskaja", "network": "Петербургский метрополитен", "station": "subway", "transport": "subway" }, "geometry": { "type": "Point", "coordinates": [ 30.3480982, 59.927601 ] } },
{ "type": "Feature", "id": "node\/183810934", "properties": { "@id": "node\/183810934", "name": "Предпортовая", "railway": "station", "wikidata": "Q4376629", "wikipedia": "ru:Предпортовая (станция)", "esr:user": "035004" }, "geometry": { "type": "Point", "coordinates": [ 30.2903316, 59.8326951 ] } },
{ "type": "Feature", "id": "node\/211439601", "properties": { "@id": "node\/211439601", "name": "Улица Дыбенко", "railway": "station", "name:fi": "Ulitsa Dybenko", "name:en": "Ulitsa Dybenko", "name:ru": "Улица Дыбенко", "operator": "Петербургский метрополитен", "colour": "orange", "name:de": "Uliza Dybenko", "network": "Петербургский метрополитен", "station": "subway", "transport": "subway" }, "geometry": { "type": "Point", "coordinates": [ 30.4818197, 59.9091008 ] } },
{ "type": "Feature", "id": "node\/211439603", "properties": { "@id": "node\/211439603", "name": "Проспект Большевиков", "railway": "station", "name:fi": "Prospekt Bolševikov", "name:en": "Prospekt Bol'shevikov", "name:ru": "Проспект Большевиков", "operator": "Петербургский метрополитен", "colour": "orange", "name:de": "Prospekt Bolschewikow", "network": "Петербургский метрополитен", "station": "subway", "transport": "subway" }, "geometry": { "type": "Point", "coordinates": [ 30.465332, 59.9215756 ] } },
{ "type": "Feature", "id": "node\/248088101", "properties": { "@id": "node\/248088101", "name": "Рыбацкое", "railway": "station", "name:fi": "Rybatskoje", "name:en": "Rybatskoye", "name:ru": "Рыбацкое", "operator": "Петербургский метрополитен", "colour": "green", "name:de": "Rybazkoje", "network": "Петербургский метрополитен", "station": "subway", "transport": "subway" }, "geometry": { "type": "Point", "coordinates": [ 30.5002908, 59.8308399 ] } },
{ "type": "Feature", "id": "node\/248088210", "properties": { "@id": "node\/248088210", "name": "Обухово", "railway": "station", "wikidata": "Q2321113", "wikipedia": "ru:Обухово (станция метро)", "name:fi": "Obuhovo", "name:en": "Obukhovo", "name:ru": "Обухово", "operator": "Петербургский метрополитен", "colour": "green", "name:de": "Obuchowo", "network": "Петербургский метрополитен", "station": "subway", "transport": "subway" }, "geometry": { "type": "Point", "coordinates": [ 30.4577476, 59.8487982 ] } },
{ "type": "Feature", "id": "node\/249299628", "properties": { "@id": "node\/249299628", "name": "Елизаровская", "railway": "station", "name:fi": "Jelisarovskaja", "name:en": "Yelizarovskaya", "name:ru": "Елизаровская", "operator": "Петербургский метрополитен", "colour": "green", "name:de": "Jelisarowskaja", "network": "Петербургский метрополитен", "station": "subway", "transport": "subway" }, "geometry": { "type": "Point", "coordinates": [ 30.4220487, 59.8979469 ] } },
{ "type": "Feature", "id": "node\/249302441", "properties": { "@id": "node\/249302441", "name": "Ломоносовская", "railway": "station", "wikidata": "Q2710207", "wikipedia": "ru:Ломоносовская (станция метро)", "name:fi": "Lomonosovskaja", "name:en": "Lomonosovskaya", "name:ru": "Ломоносовская", "operator": "Петербургский метрополитен", "colour": "green", "name:de": "Lomonossowskaja", "network": "Петербургский метрополитен", "station": "subway", "transport": "subway" }, "geometry": { "type": "Point", "coordinates": [ 30.440756, 59.8780812 ] } },
{ "type": "Feature", "id": "node\/249304980", "properties": { "@id": "node\/249304980", "name": "Пролетарская", "railway": "station", "name:fi": "Proletarskaja", "name:en": "Proletarskaya", "name:ru": "Пролетарская", "operator": "Петербургский метрополитен", "colour": "green", "name:de": "Proletarskaja", "network": "Петербургский метрополитен", "station": "subway", "transport": "subway" }, "geometry": { "type": "Point", "coordinates": [ 30.4687908, 59.8661248 ] } },
{ "type": "Feature", "id": "node\/249307184", "properties": { "@id": "node\/249307184", "name": "Приморская", "railway": "station", "name:fi": "Primorskaja", "name:en": "Primorskaya", "name:ru": "Приморская", "operator": "Петербургский метрополитен", "colour": "green", "name:de": "Primorskaja", "network": "Петербургский метрополитен", "station": "subway", "transport": "subway" }, "geometry": { "type": "Point", "coordinates": [ 30.2381173, 59.948849 ] } },
{ "type": "Feature", "id": "node\/249898478", "properties": { "@id": "node\/249898478", "name": "Московские ворота", "railway": "station", "name:fi": "Moskovskije Vorota", "name:en": "Moskovskye Vorota", "name:ru": "Московские ворота", "operator": "Петербургский метрополитен", "colour": "blue", "name:de": "Moskowskije Worota", "network": "Петербургский метрополитен", "station": "subway", "transport": "subway" }, "geometry": { "type": "Point", "coordinates": [ 30.3178871, 59.8921879 ] } },
{ "type": "Feature", "id": "node\/249902972", "properties": { "@id": "node\/249902972", "name": "Фрунзенская", "railway": "station", "name:fi": "Frunzenskaja", "name:en": "Frunzenskaya", "name:ru": "Фрунзенская", "operator": "Петербургский метрополитен", "colour": "blue", "name:de": "Frunsenskaja", "network": "Петербургский метрополитен", "station": "subway", "transport": "subway" }, "geometry": { "type": "Point", "coordinates": [ 30.3176664, 59.9052794 ] } },
{ "type": "Feature", "id": "node\/249904416", "properties": { "@id": "node\/249904416", "name": "Электросила", "railway": "station", "name:fi": "Elektrosila", "name:en": "Elektrosila", "name:ru": "Электросила", "operator": "Петербургский метрополитен", "colour": "blue", "name:de": "Elektrosila", "network": "Петербургский метрополитен", "station": "subway", "transport": "subway" }, "geometry": { "type": "Point", "coordinates": [ 30.3185741, 59.8799392 ] } },
{ "type": "Feature", "id": "node\/255282256", "properties": { "@id": "node\/255282256", "name": "Витебская сортировочная", "railway": "station", "esr:user": "033517" }, "geometry": { "type": "Point", "coordinates": [ 30.3482563, 59.8863539 ] } },
{ "type": "Feature", "id": "node\/255473383", "properties": { "@id": "node\/255473383", "freight": "yes", "name": "Санкт-Петербург-Товарный-Витебский", "railway": "station", "esr:user": "033502" }, "geometry": { "type": "Point", "coordinates": [ 30.3471517, 59.898735 ] } },
{ "type": "Feature", "id": "node\/258760945", "properties": { "@id": "node\/258760945", "name": "Автово", "railway": "station", "name:fi": "Avtovo", "name:en": "Avtovo", "name:ru": "Автово", "operator": "Петербургский метрополитен", "colour": "red", "name:de": "Awtowo", "network": "Петербургский метрополитен", "station": "subway", "transport": "subway" }, "geometry": { "type": "Point", "coordinates": [ 30.2614307, 59.8668214 ] } },
{ "type": "Feature", "id": "node\/265301052", "properties": { "@id": "node\/265301052", "name": "Санкт-Петербург - Ладожский", "railway": "station", "alt_name": "Дача Долгорукова", "esr:user": "037109", "uic_name": "St Petersburg Ladogskii", "uic_ref": "2005931" }, "geometry": { "type": "Point", "coordinates": [ 30.4396951, 59.9305358 ] } },
{ "type": "Feature", "id": "node\/291557399", "properties": { "@id": "node\/291557399", "name": "Невский проспект", "railway": "station", "name:fi": "Nevski prospekt", "name:en": "Nevskiy Prospekt", "name:ru": "Невский проспект", "operator": "Петербургский метрополитен", "colour": "blue", "name:de": "Newski-Prospekt", "network": "Петербургский метрополитен", "station": "subway", "transport": "subway", "name:zh": "涅夫斯基大街", "layer": "-5" }, "geometry": { "type": "Point", "coordinates": [ 30.3277461, 59.934049 ] } },
{ "type": "Feature", "id": "node\/298969888", "properties": { "@id": "node\/298969888", "name": "Купчино", "railway": "station", "wikidata": "Q2053224", "wikipedia": "ru:Купчино (станция метро)", "name:en": "Kupchino", "name:ru": "Купчино", "operator": "Петербургский метрополитен", "colour": "blue", "name:de": "Kuptschino", "network": "Петербургский метрополитен", "station": "subway", "transport": "subway" }, "geometry": { "type": "Point", "coordinates": [ 30.3754571, 59.8296785 ] } },
{ "type": "Feature", "id": "node\/312393508", "properties": { "@id": "node\/312393508", "name": "Балтийская", "railway": "station", "name:fi": "Baltijskaja", "name:en": "Baltic", "name:ru": "Балтийская", "operator": "Петербургский метрополитен", "colour": "red", "name:de": "Baltisch", "network": "Петербургский метрополитен", "station": "subway", "transport": "subway" }, "geometry": { "type": "Point", "coordinates": [ 30.300785, 59.9075939 ] } },
{ "type": "Feature", "id": "node\/313475956", "properties": { "@id": "node\/313475956", "name": "Нарвская", "railway": "station", "name:fi": "Narvskaja", "name:en": "Narvskaya", "name:ru": "Нарвская", "operator": "Петербургский метрополитен", "colour": "red", "name:de": "Narwskaja", "network": "Петербургский метрополитен", "station": "subway", "transport": "subway" }, "geometry": { "type": "Point", "coordinates": [ 30.2735226, 59.9003839 ] } },
{ "type": "Feature", "id": "node\/313476034", "properties": { "@id": "node\/313476034", "name": "Кировский завод", "railway": "station", "name:fi": "Kirovski zavod", "name:en": "Kirovskiy Zavod", "name:ru": "Кировский завод", "operator": "Петербургский метрополитен", "colour": "red", "name:de": "Kirowski Sawod", "network": "Петербургский метрополитен", "station": "subway", "transport": "subway" }, "geometry": { "type": "Point", "coordinates": [ 30.2613018, 59.8791002 ] } },
{ "type": "Feature", "id": "node\/315025552", "properties": { "@id": "node\/315025552", "name": "Парк Победы", "railway": "station", "wikidata": "Q2454785", "wikipedia": "ru:Парк Победы (станция метро, Санкт-Петербург)", "name:fi": "Park Pobedy", "name:en": "Park Pobedy", "name:ru": "Парк Победы", "operator": "Петербургский метрополитен", "colour": "blue", "name:de": "Park Pobedy", "network": "Петербургский метрополитен", "station": "subway", "transport": "subway" }, "geometry": { "type": "Point", "coordinates": [ 30.3216532, 59.8673094 ] } },
{ "type": "Feature", "id": "node\/315051539", "properties": { "@id": "node\/315051539", "name": "Звёздная", "railway": "station", "name:fi": "Zvjozdnaja", "name:en": "Zvyozdnaya", "name:ru": "Звёздная", "operator": "Петербургский метрополитен", "colour": "blue", "name:de": "Swjosdnaja", "network": "Петербургский метрополитен", "station": "subway", "transport": "subway" }, "geometry": { "type": "Point", "coordinates": [ 30.3496483, 59.8332278 ] } },
{ "type": "Feature", "id": "node\/344890527", "properties": { "@id": "node\/344890527", "name": "Ленинский проспект", "railway": "station", "name:fi": "Leninski Prospekt", "name:en": "Leninskiy Prospekt", "name:ru": "Ленинский проспект", "operator": "Петербургский метрополитен", "colour": "red", "name:de": "Leninski-Prospekt", "network": "Петербургский метрополитен", "station": "subway", "transport": "subway" }, "geometry": { "type": "Point", "coordinates": [ 30.2684038, 59.8506391 ] } },
{ "type": "Feature", "id": "node\/344890631", "properties": { "@id": "node\/344890631", "name": "Проспект Ветеранов", "railway": "station", "name:fi": "Prospekt Veteranov", "name:en": "Prospekt Veteranov", "name:ru": "Проспект Ветеранов", "operator": "Петербургский метрополитен", "colour": "red", "name:de": "Prospekt Weteranow", "network": "Петербургский метрополитен", "station": "subway", "transport": "subway" }, "geometry": { "type": "Point", "coordinates": [ 30.2520174, 59.8419484 ] } },
{ "type": "Feature", "id": "node\/359711515", "properties": { "@id": "node\/359711515", "name": "Волковская", "railway": "station", "name:fi": "Volkovskaja", "name:en": "Volkovskaya", "name:ru": "Волковская", "operator": "Петербургский метрополитен", "colour": "purple", "name:de": "Wolkowskaja", "network": "Петербургский метрополитен", "station": "subway", "transport": "subway" }, "geometry": { "type": "Point", "coordinates": [ 30.3592894, 59.8944447 ] } },
{ "type": "Feature", "id": "node\/359711518", "properties": { "@id": "node\/359711518", "name": "Обводный канал", "railway": "station", "name:fi": "Obvodnyi kanal", "name:en": "Obvodny Kanal", "name:ru": "Обводный канал", "operator": "Петербургский метрополитен", "colour": "purple", "name:de": "Obwodny Kanal", "network": "Петербургский метрополитен", "station": "subway", "transport": "subway" }, "geometry": { "type": "Point", "coordinates": [ 30.3500211, 59.9139392 ] } },
{ "type": "Feature", "id": "node\/368492380", "properties": { "@id": "node\/368492380", "freight": "yes", "name": "Бадаевская", "railway": "station" }, "geometry": { "type": "Point", "coordinates": [ 30.3253191, 59.8952835 ] } },
{ "type": "Feature", "id": "node\/395306323", "properties": { "@id": "node\/395306323", "name": "Новый порт", "railway": "station" }, "geometry": { "type": "Point", "coordinates": [ 30.2374901, 59.9093033 ] } },
{ "type": "Feature", "id": "node\/648222978", "properties": { "@id": "node\/648222978", "name": "Московская", "railway": "station", "name:fi": "Moskovskaja", "name:en": "Moskovskaya", "name:ru": "Московская", "operator": "Петербургский метрополитен", "colour": "blue", "name:de": "Moskowskaja", "network": "Петербургский метрополитен", "station": "subway", "transport": "subway", "name:zh": "莫斯科街" }, "geometry": { "type": "Point", "coordinates": [ 30.3222655, 59.8513083 ] } },
{ "type": "Feature", "id": "node\/695134915", "properties": { "@id": "node\/695134915", "name": "Международная", "railway": "station", "wikidata": "Q1971134", "wikipedia": "ru:Международная (станция метро, Санкт-Петербург)", "name:en": "Mezhdunarodnaya", "name:ru": "Международная", "operator": "Петербургский метрополитен", "colour": "purple", "name:de": "Meschdunarodnaja", "network": "Петербургский метрополитен", "station": "subway", "transport": "subway" }, "geometry": { "type": "Point", "coordinates": [ 30.3818778, 59.868623 ] } },
{ "type": "Feature", "id": "node\/695134921", "properties": { "@id": "node\/695134921", "name": "Бухарестская", "railway": "station", "name:en": "Bukharastskaya", "name:ru": "Бухарестская", "operator": "Петербургский метрополитен", "colour": "purple", "name:de": "Bucharestskaja", "network": "Петербургский метрополитен", "station": "subway", "transport": "subway" }, "geometry": { "type": "Point", "coordinates": [ 30.3703188, 59.8823279 ] } },
{ "type": "Feature", "id": "node\/698657793", "properties": { "@id": "node\/698657793", "name": "Проспект Просвещения", "railway": "station", "wikidata": "Q4381327", "wikipedia": "ru:Проспект Просвещения", "name:fi": "Prospekt Prosveštšenija", "name:en": "Prospekt Prosvescheniya", "name:ru": "Проспект Просвещения", "operator": "Петербургский метрополитен", "colour": "blue", "name:de": "Prospekt Prosweschtschenija", "network": "Петербургский метрополитен", "station": "subway", "transport": "subway", "layer": "-1" }, "geometry": { "type": "Point", "coordinates": [ 30.332047, 60.0503704 ] } },
{ "type": "Feature", "id": "node\/1002512043", "properties": { "@id": "node\/1002512043", "freight": "yes", "name": "Купчинская", "railway": "station", "wikidata": "Q4247649", "wikipedia": "ru:Купчинская (станция)", "name:ru": "Купчинская" }, "geometry": { "type": "Point", "coordinates": [ 30.4197096, 59.8257233 ] } },
{ "type": "Feature", "id": "node\/1002512045", "properties": { "@id": "node\/1002512045", "freight": "yes", "name": "Среднерогатская", "railway": "station", "wikidata": "Q4438552", "wikipedia": "ru:Среднерогатская" }, "geometry": { "type": "Point", "coordinates": [ 30.3567724, 59.8167497 ] } },
{ "type": "Feature", "id": "node\/1002512063", "properties": { "@id": "node\/1002512063", "freight": "yes", "name": "Автово", "railway": "station", "wikidata": "Q4056184", "wikipedia": "ru:Автово (железнодорожная станция)" }, "geometry": { "type": "Point", "coordinates": [ 30.2503408, 59.8645527 ] } },
{ "type": "Feature", "id": "node\/1002549286", "properties": { "@id": "node\/1002549286", "freight": "yes", "name": "Нарвская", "railway": "station" }, "geometry": { "type": "Point", "coordinates": [ 30.2814709, 59.8717091 ] } },
{ "type": "Feature", "id": "node\/1002742122", "properties": { "@id": "node\/1002742122", "freight": "yes", "name": "Корпусный пост", "railway": "station", "wikidata": "Q4234243", "wikipedia": "ru:Корпусный пост (станция)", "note": "Для пассажирского движения не используется" }, "geometry": { "type": "Point", "coordinates": [ 30.3049613, 59.8827376 ] } },
{ "type": "Feature", "id": "node\/1109163153", "properties": { "@id": "node\/1109163153", "name": "Спасская", "railway": "station", "name:fi": "Spasskaja", "name:en": "Spasskaya", "name:ru": "Спасская", "operator": "Петербургский метрополитен", "colour": "orange", "name:de": "Spasskaja", "network": "Петербургский метрополитен", "station": "subway", "transport": "subway" }, "geometry": { "type": "Point", "coordinates": [ 30.3179991, 59.9260656 ] } },
{ "type": "Feature", "id": "node\/1371730163", "properties": { "@id": "node\/1371730163", "name": "Молодёжная", "railway": "station", "esr:user": "0" }, "geometry": { "type": "Point", "coordinates": [ 30.3779485, 59.8256602 ] } },
{ "type": "Feature", "id": "node\/1440436739", "properties": { "@id": "node\/1440436739", "name": "Адмиралтейская", "railway": "station", "wikidata": "Q2477938", "wikipedia": "ru:Адмиралтейская (станция метро)", "name:fi": "Admiralteiskaja", "name:en": "Admiralteiskaya", "name:ru": "Адмиралтейская", "operator": "Петербургский метрополитен", "colour": "purple", "name:de": "Admiralteiskaja", "network": "Петербургский метрополитен", "station": "subway", "transport": "subway" }, "geometry": { "type": "Point", "coordinates": [ 30.3138916, 59.9361378 ] } },
{ "type": "Feature", "id": "node\/1669571976", "properties": { "@id": "node\/1669571976", "name": "Технологический институт 1", "railway": "station", "name:fi": "Tehnologitšeski Institut 1", "loc_name": "Техноложка", "name:en": "Teknologicheskiy Institut 1", "name:ru": "Технологический институт 1", "operator": "Петербургский метрополитен", "colour": "blue", "name:de": "Technologitscheski Institut 1", "network": "Петербургский метрополитен", "station": "subway", "transport": "subway" }, "geometry": { "type": "Point", "coordinates": [ 30.317345, 59.9151867 ] } },
{ "type": "Feature", "id": "node\/1669571977", "properties": { "@id": "node\/1669571977", "name": "Технологический институт 2", "railway": "station", "name:fi": "Tehnologitšeski Institut 2", "loc_name": "Техноложка", "name:en": "Teknologicheskiy Institut 2", "name:ru": "Технологический институт 2", "operator": "Петербургский метрополитен", "colour": "blue", "name:de": "Technologitscheski Institut 2", "network": "Петербургский метрополитен", "station": "subway", "transport": "subway" }, "geometry": { "type": "Point", "coordinates": [ 30.3183867, 59.9153356 ] } },
{ "type": "Feature", "id": "node\/1913149506", "properties": { "@id": "node\/1913149506", "name": "Ржевка", "railway": "station", "wikidata": "Q4394200", "wikipedia": "ru:Ржевка (станция)" }, "geometry": { "type": "Point", "coordinates": [ 30.5158033, 59.9808193 ] } },
{ "type": "Feature", "id": "node\/2011157246", "properties": { "@id": "node\/2011157246", "name": "Лигово", "railway": "station", "wikidata": "Q4261223", "wikipedia": "ru:Лигово (станция)" }, "geometry": { "type": "Point", "coordinates": [ 30.1808245, 59.8232844 ] } },
{ "type": "Feature", "id": "node\/2011157312", "properties": { "@id": "node\/2011157312", "name": "Обухово", "railway": "station", "uic_name": "Obuhovo", "uic_ref": "2005150" }, "geometry": { "type": "Point", "coordinates": [ 30.4539539, 59.8490613 ] } },
{ "type": "Feature", "id": "node\/2036827694", "properties": { "@id": "node\/2036827694", "name": "Площадь Ленина", "railway": "station", "name:fi": "Ploštšad Lenina", "name:en": "Lenin Square", "name:ru": "Площадь Ленина", "operator": "Петербургский метрополитен", "colour": "red", "name:de": "Ploschtschad Lenina", "network": "Петербургский метрополитен", "station": "subway", "transport": "subway", "name:zh": "列宁广场" }, "geometry": { "type": "Point", "coordinates": [ 30.3557729, 59.9564213 ] } },
{ "type": "Feature", "id": "node\/2036845118", "properties": { "@id": "node\/2036845118", "name": "Лесная", "railway": "station", "name:fi": "Lesnaja", "name:en": "Lesnaya", "name:ru": "Лесная", "operator": "Петербургский метрополитен", "colour": "red", "name:de": "Lesnaja", "network": "Петербургский метрополитен", "station": "subway", "transport": "subway" }, "geometry": { "type": "Point", "coordinates": [ 30.3454938, 59.9864995 ] } },
{ "type": "Feature", "id": "node\/2036851507", "properties": { "@id": "node\/2036851507", "name": "Площадь Мужества", "railway": "station", "name:fi": "Ploštšad Mužestva", "name:en": "Ploschad' Muzhestva", "name:ru": "Площадь Мужества", "operator": "Петербургский метрополитен", "colour": "red", "name:de": "Ploschtschad Muschestwa", "network": "Петербургский метрополитен", "station": "subway", "transport": "subway" }, "geometry": { "type": "Point", "coordinates": [ 30.3673518, 60.001492 ] } },
{ "type": "Feature", "id": "node\/2036864189", "properties": { "@id": "node\/2036864189", "name": "Политехническая", "railway": "station", "name:fi": "Politehnitšeskaja", "name:en": "Politekhnicheskaya", "name:ru": "Политехническая", "operator": "Петербургский метрополитен", "colour": "red", "name:de": "Politechnitscheskaja", "network": "Петербургский метрополитен", "station": "subway", "transport": "subway" }, "geometry": { "type": "Point", "coordinates": [ 30.3718422, 60.0091369 ] } },
{ "type": "Feature", "id": "node\/2036865229", "properties": { "@id": "node\/2036865229", "name": "Академическая", "railway": "station", "name:fi": "Akademitšeskaja", "name:en": "Akademicheskaya", "name:ru": "Академическая", "operator": "Петербургский метрополитен", "colour": "red", "name:de": "Akademitscheskaja", "network": "Петербургский метрополитен", "station": "subway", "transport": "subway", "int_name": "Akademicheskaya" }, "geometry": { "type": "Point", "coordinates": [ 30.3949419, 60.0126401 ] } },
{ "type": "Feature", "id": "node\/2036899257", "properties": { "@id": "node\/2036899257", "name": "Гражданский проспект", "railway": "station", "wikidata": "Q2316707", "wikipedia": "ru:Гражданский проспект (станция метро)", "name:fi": "Graždanski prospekt", "name:en": "Grazhdanskiy Prospekt", "name:ru": "Гражданский проспект", "operator": "Петербургский метрополитен", "colour": "red", "name:de": "Graschdanski Prospekt", "network": "Петербургский метрополитен", "station": "subway", "transport": "subway", "int_name": "Grazhdanskiy prospekt" }, "geometry": { "type": "Point", "coordinates": [ 30.4172156, 60.0340668 ] } },
{ "type": "Feature", "id": "node\/2080777576", "properties": { "@id": "node\/2080777576", "name": "Звенигородская", "railway": "station", "wikidata": "Q2310323", "wikipedia": "ru:Звенигородская (станция метро)", "name:ru": "Звенигородская", "operator": "Петербургский метрополитен", "colour": "purple", "network": "Петербургский метрополитен", "station": "subway", "transport": "subway" }, "geometry": { "type": "Point", "coordinates": [ 30.3324969, 59.9218836 ] } },
{ "type": "Feature", "id": "node\/2111802825", "properties": { "@id": "node\/2111802825", "name": "Рыбацкое", "railway": "station" }, "geometry": { "type": "Point", "coordinates": [ 30.5011562, 59.8312736 ] } },
{ "type": "Feature", "id": "node\/2194446558", "properties": { "@id": "node\/2194446558", "name": "Пушкинская", "railway": "station", "name:ru": "Пушкинская", "operator": "Петербургский метрополитен", "colour": "red", "network": "Петербургский метрополитен", "station": "subway", "transport": "subway" }, "geometry": { "type": "Point", "coordinates": [ 30.3319868, 59.9210895 ] } },
{ "type": "Feature", "id": "node\/2238292659", "properties": { "@id": "node\/2238292659", "name": "Парнас", "railway": "station" }, "geometry": { "type": "Point", "coordinates": [ 30.3575167, 60.0576832 ] } },
{ "type": "Feature", "id": "node\/2417778283", "properties": { "@id": "node\/2417778283", "name": "Санкт-Петербург - Товарный - Московский", "railway": "station", "esr:user": "031808", "name:ru": "Санкт-Петербург - Товарный - Московский" }, "geometry": { "type": "Point", "coordinates": [ 30.3692085, 59.9105121 ] } },
{ "type": "Feature", "id": "node\/2434852978", "properties": { "@id": "node\/2434852978", "name": "Санкт-Петербург - Балтийский", "railway": "station", "esr:user": "036002", "name:ru": "Санкт-Петербург - Балтийский" }, "geometry": { "type": "Point", "coordinates": [ 30.2986621, 59.9049303 ] } },
{ "type": "Feature", "id": "node\/2468455392", "properties": { "@id": "node\/2468455392", "name": "Василеостровская", "railway": "station", "wikidata": "Q640755", "wikipedia": "ru:Василеостровская (станция метро)", "name:ru": "Василеостровская", "operator": "Петербургский метрополитен", "colour": "green", "network": "Петербургский метрополитен", "station": "subway", "transport": "subway", "int_name": "Vasileostrovskaya" }, "geometry": { "type": "Point", "coordinates": [ 30.2752793, 59.9431042 ] } },
{ "type": "Feature", "id": "node\/2891968783", "properties": { "@id": "node\/2891968783", "name": "Юный", "railway": "station", "esr:user": "0", "operator": "Малая Октябрьская железная дорога", "platforms": "2" }, "geometry": { "type": "Point", "coordinates": [ 30.2952377, 60.0257104 ] } },
{ "type": "Feature", "id": "node\/3774659757", "properties": { "@id": "node\/3774659757", "name": "Горелово", "railway": "station", "wikidata": "Q4144037", "wikipedia": "ru:Горелово (станция)" }, "geometry": { "type": "Point", "coordinates": [ 30.1255386, 59.7791113 ] } },
{ "type": "Feature", "id": "node\/3940791607", "properties": { "@id": "node\/3940791607", "name": "Нева", "railway": "station", "wikidata": "Q14927502", "wikipedia": "ru:Нева (станция)", "platforms": "0" }, "geometry": { "type": "Point", "coordinates": [ 30.4953264, 59.8892094 ] } },
{ "type": "Feature", "id": "node\/4179047476", "properties": { "@id": "node\/4179047476", "name": "Чернышевская", "railway": "station", "name:fi": "Tšernyševskaja", "name:en": "Chernyshevskaya", "name:ru": "Чернышевская", "operator": "Петербургский метрополитен", "colour": "red", "name:de": "Tschernyschewskaja", "network": "Петербургский метрополитен", "station": "subway", "transport": "subway" }, "geometry": { "type": "Point", "coordinates": [ 30.3607773, 59.9431101 ] } },
{ "type": "Feature", "id": "node\/4288702580", "properties": { "@id": "node\/4288702580", "name": "Санкт-Петербург-Сортировочный-Московский", "railway": "station" }, "geometry": { "type": "Point", "coordinates": [ 30.427665, 59.8688118 ] } },
{ "type": "Feature", "id": "node\/4946155636", "properties": { "@id": "node\/4946155636", "name": "Площадь Александра Невского 2", "railway": "station", "wikidata": "Q1860079", "wikipedia": "ru:Площадь Александра Невского-2 (станция метро)", "name:fi": "Ploštšad Aleksandra Nevskogo 2", "name:en": "Ploschad' Alexandra Nevskogo-2", "name:ru": "Площадь Александра Невского 2", "operator": "Петербургский метрополитен", "colour": "orange", "name:de": "Ploschtschad Alexandra Newskogo-2", "network": "Петербургский метрополитен", "station": "subway", "transport": "subway", "name:es": "Ploshchad' Aleksanra Nevskogo 2" }, "geometry": { "type": "Point", "coordinates": [ 30.3845442, 59.9226 ] } },
{ "type": "Feature", "id": "node\/4965103290", "properties": { "@id": "node\/4965103290", "name": "Шувалово", "railway": "station", "wikidata": "Q4527295", "wikipedia": "ru:Шувалово (станция)", "name:fi": "Suvala", "name:ru": "Шувалово" }, "geometry": { "type": "Point", "coordinates": [ 30.297483, 60.0468145 ] } }
]
}
